STARLINK-36432          
1 67342U 26003J   26020.91668981 -.01549538  00000+0 -80188-2 0  9994
2 67342  42.9982 142.8875 0001604 286.9978 258.8031 15.82932110  2981
STARLINK-36458          
1 67343U 26003K   26020.91668981 -.01543044  00000+0 -79829-2 0  9991
2 67343  42.9982 142.8823 0001428 283.6075 264.2423 15.82927969  2994
STARLINK-36422          
1 67344U 26003L   26020.91668981 -.01569033  00000+0 -81459-2 0  9990
2 67344  42.9980 142.8755 0001469 284.5862 265.7920 15.82903516  2985
STARLINK-35676          
1 67345U 26003M   26020.91668981 -.01580726  00000+0 -82245-2 0  9997
2 67345  42.9983 142.8696 0001522 283.1781 269.6339 15.82879513  2984
STARLINK-36472          
1 67346U 26003N   26020.91668981 -.01566214  00000+0 -81433-2 0  9992
2 67346  42.9984 142.8640 0001505 283.5730 271.3648 15.82866727  2980
STARLINK-36420          
1 67347U 26003P   26020.91668981 -.01602844  00000+0 -83723-2 0  9997
2 67347  42.9984 142.8524 0001565 283.9835 275.6038 15.82839582  2998
STARLINK-36467          
1 67348U 26003Q   26020.91668981 -.01582902  00000+0 -82547-2 0  9993
2 67348  42.9984 142.8583 0001508 284.3119 273.1327 15.82836078  2992
STARLINK-36457          
1 67349U 26003R   26020.91668981 -.01595686  00000+0 -83489-2 0  9993
2 67349  42.9985 142.8460 0001493 280.9954 281.1565 15.82791477  2996
STARLINK-36475          
1 67350U 26003S   26020.91668981 -.01605640  00000+0 -84216-2 0  9996
2 67350  42.9984 142.8395 0001551 284.8671 279.7677 15.82758611  2987
STARLINK-36478          
1 67351U 26003T   26020.91668981 -.01607007  00000+0 -84285-2 0  9992
2 67351  42.9983 142.8344 0001534 286.6459 280.0288 15.82762223  2983
STARLINK-36479          
1 67352U 26003U   26020.91668981 -.01613314  00000+0 -84664-2 0  9992
2 67352  42.9983 142.8291 0001493 284.3304 284.4438 15.82762950  2996
STARLINK-36474          
1 67353U 26003V   26020.91668981 -.01629541  00000+0 -85724-2 0  9990
2 67353  42.9981 142.8234 0001305 278.9873 292.1524 15.82745833  2997
