CCSDS_OMM_VERS = 2.0
CREATION_DATE  = 
ORIGINATOR     = 

OBJECT_NAME    = STARLINK-36432
OBJECT_ID      = 2026-003J
CENTER_NAME    = EARTH
REF_FRAME      = TEME
TIME_SYSTEM    = UTC
MEAN_ELEMENT_THEORY = SGP/SGP4

EPOCH          = 2026-01-20T22:00:01.999584
MEAN_MOTION    = 15.82932110
ECCENTRICITY   = .00016045
INCLINATION    = 42.9982
RA_OF_ASC_NODE = 142.8875
ARG_OF_PERICENTER = 286.9978
MEAN_ANOMALY   = 258.8031

EPHEMERIS_TYPE = 0
CLASSIFICATION_TYPE = U
NORAD_CAT_ID   = 67342
ELEMENT_SET_NO = 999
REV_AT_EPOCH   = 298
BSTAR          = -.80188321E-2
MEAN_MOTION_DOT = -.1549538E-1
MEAN_MOTION_DDOT = 0

CCSDS_OMM_VERS = 2.0
CREATION_DATE  = 
ORIGINATOR     = 

OBJECT_NAME    = STARLINK-36458
OBJECT_ID      = 2026-003K
CENTER_NAME    = EARTH
REF_FRAME      = TEME
TIME_SYSTEM    = UTC
MEAN_ELEMENT_THEORY = SGP/SGP4

EPOCH          = 2026-01-20T22:00:01.999584
MEAN_MOTION    = 15.82927969
ECCENTRICITY   = .00014283
INCLINATION    = 42.9982
RA_OF_ASC_NODE = 142.8823
ARG_OF_PERICENTER = 283.6075
MEAN_ANOMALY   = 264.2423

EPHEMERIS_TYPE = 0
CLASSIFICATION_TYPE = U
NORAD_CAT_ID   = 67343
ELEMENT_SET_NO = 999
REV_AT_EPOCH   = 299
BSTAR          = -.79829227E-2
MEAN_MOTION_DOT = -.1543044E-1
MEAN_MOTION_DDOT = 0

CCSDS_OMM_VERS = 2.0
CREATION_DATE  = 
ORIGINATOR     = 

OBJECT_NAME    = STARLINK-36422
OBJECT_ID      = 2026-003L
CENTER_NAME    = EARTH
REF_FRAME      = TEME
TIME_SYSTEM    = UTC
MEAN_ELEMENT_THEORY = SGP/SGP4

EPOCH          = 2026-01-20T22:00:01.999584
MEAN_MOTION    = 15.82903516
ECCENTRICITY   = .00014692
INCLINATION    = 42.9980
RA_OF_ASC_NODE = 142.8755
ARG_OF_PERICENTER = 284.5862
MEAN_ANOMALY   = 265.7920

EPHEMERIS_TYPE = 0
CLASSIFICATION_TYPE = U
NORAD_CAT_ID   = 67344
ELEMENT_SET_NO = 999
REV_AT_EPOCH   = 298
BSTAR          = -.81458762E-2
MEAN_MOTION_DOT = -.1569033E-1
MEAN_MOTION_DDOT = 0

CCSDS_OMM_VERS = 2.0
CREATION_DATE  = 
ORIGINATOR     = 

OBJECT_NAME    = STARLINK-35676
OBJECT_ID      = 2026-003M
CENTER_NAME    = EARTH
REF_FRAME      = TEME
TIME_SYSTEM    = UTC
MEAN_ELEMENT_THEORY = SGP/SGP4

EPOCH          = 2026-01-20T22:00:01.999584
MEAN_MOTION    = 15.82879513
ECCENTRICITY   = .00015228
INCLINATION    = 42.9983
RA_OF_ASC_NODE = 142.8696
ARG_OF_PERICENTER = 283.1781
MEAN_ANOMALY   = 269.6339

EPHEMERIS_TYPE = 0
CLASSIFICATION_TYPE = U
NORAD_CAT_ID   = 67345
ELEMENT_SET_NO = 999
REV_AT_EPOCH   = 298
BSTAR          = -.82245124E-2
MEAN_MOTION_DOT = -.1580726E-1
MEAN_MOTION_DDOT = 0

CCSDS_OMM_VERS = 2.0
CREATION_DATE  = 
ORIGINATOR     = 

OBJECT_NAME    = STARLINK-36472
OBJECT_ID      = 2026-003N
CENTER_NAME    = EARTH
REF_FRAME      = TEME
TIME_SYSTEM    = UTC
MEAN_ELEMENT_THEORY = SGP/SGP4

EPOCH          = 2026-01-20T22:00:01.999584
MEAN_MOTION    = 15.82866727
ECCENTRICITY   = .00015052
INCLINATION    = 42.9984
RA_OF_ASC_NODE = 142.8640
ARG_OF_PERICENTER = 283.5730
MEAN_ANOMALY   = 271.3648

EPHEMERIS_TYPE = 0
CLASSIFICATION_TYPE = U
NORAD_CAT_ID   = 67346
ELEMENT_SET_NO = 999
REV_AT_EPOCH   = 298
BSTAR          = -.81432876E-2
MEAN_MOTION_DOT = -.1566214E-1
MEAN_MOTION_DDOT = 0

CCSDS_OMM_VERS = 2.0
CREATION_DATE  = 
ORIGINATOR     = 

OBJECT_NAME    = STARLINK-36420
OBJECT_ID      = 2026-003P
CENTER_NAME    = EARTH
REF_FRAME      = TEME
TIME_SYSTEM    = UTC
MEAN_ELEMENT_THEORY = SGP/SGP4

EPOCH          = 2026-01-20T22:00:01.999584
MEAN_MOTION    = 15.82839582
ECCENTRICITY   = .00015658
INCLINATION    = 42.9984
RA_OF_ASC_NODE = 142.8524
ARG_OF_PERICENTER = 283.9835
MEAN_ANOMALY   = 275.6038

EPHEMERIS_TYPE = 0
CLASSIFICATION_TYPE = U
NORAD_CAT_ID   = 67347
ELEMENT_SET_NO = 999
REV_AT_EPOCH   = 299
BSTAR          = -.83722632E-2
MEAN_MOTION_DOT = -.1602844E-1
MEAN_MOTION_DDOT = 0

CCSDS_OMM_VERS = 2.0
CREATION_DATE  = 
ORIGINATOR     = 

OBJECT_NAME    = STARLINK-36467
OBJECT_ID      = 2026-003Q
CENTER_NAME    = EARTH
REF_FRAME      = TEME
TIME_SYSTEM    = UTC
MEAN_ELEMENT_THEORY = SGP/SGP4

EPOCH          = 2026-01-20T22:00:01.999584
MEAN_MOTION    = 15.82836078
ECCENTRICITY   = .00015087
INCLINATION    = 42.9984
RA_OF_ASC_NODE = 142.8583
ARG_OF_PERICENTER = 284.3119
MEAN_ANOMALY   = 273.1327

EPHEMERIS_TYPE = 0
CLASSIFICATION_TYPE = U
NORAD_CAT_ID   = 67348
ELEMENT_SET_NO = 999
REV_AT_EPOCH   = 299
BSTAR          = -.82546588E-2
MEAN_MOTION_DOT = -.1582902E-1
MEAN_MOTION_DDOT = 0

CCSDS_OMM_VERS = 2.0
CREATION_DATE  = 
ORIGINATOR     = 

OBJECT_NAME    = STARLINK-36457
OBJECT_ID      = 2026-003R
CENTER_NAME    = EARTH
REF_FRAME      = TEME
TIME_SYSTEM    = UTC
MEAN_ELEMENT_THEORY = SGP/SGP4

EPOCH          = 2026-01-20T22:00:01.999584
MEAN_MOTION    = 15.82791477
ECCENTRICITY   = .00014938
INCLINATION    = 42.9985
RA_OF_ASC_NODE = 142.8460
ARG_OF_PERICENTER = 280.9954
MEAN_ANOMALY   = 281.1565

EPHEMERIS_TYPE = 0
CLASSIFICATION_TYPE = U
NORAD_CAT_ID   = 67349
ELEMENT_SET_NO = 999
REV_AT_EPOCH   = 299
BSTAR          = -.83489246E-2
MEAN_MOTION_DOT = -.1595686E-1
MEAN_MOTION_DDOT = 0

CCSDS_OMM_VERS = 2.0
CREATION_DATE  = 
ORIGINATOR     = 

OBJECT_NAME    = STARLINK-36475
OBJECT_ID      = 2026-003S
CENTER_NAME    = EARTH
REF_FRAME      = TEME
TIME_SYSTEM    = UTC
MEAN_ELEMENT_THEORY = SGP/SGP4

EPOCH          = 2026-01-20T22:00:01.999584
MEAN_MOTION    = 15.82758611
ECCENTRICITY   = .0001551
INCLINATION    = 42.9984
RA_OF_ASC_NODE = 142.8395
ARG_OF_PERICENTER = 284.8671
MEAN_ANOMALY   = 279.7677

EPHEMERIS_TYPE = 0
CLASSIFICATION_TYPE = U
NORAD_CAT_ID   = 67350
ELEMENT_SET_NO = 999
REV_AT_EPOCH   = 298
BSTAR          = -.84216153E-2
MEAN_MOTION_DOT = -.160564E-1
MEAN_MOTION_DDOT = 0

CCSDS_OMM_VERS = 2.0
CREATION_DATE  = 
ORIGINATOR     = 

OBJECT_NAME    = STARLINK-36478
OBJECT_ID      = 2026-003T
CENTER_NAME    = EARTH
REF_FRAME      = TEME
TIME_SYSTEM    = UTC
MEAN_ELEMENT_THEORY = SGP/SGP4

EPOCH          = 2026-01-20T22:00:01.999584
MEAN_MOTION    = 15.82762223
ECCENTRICITY   = .00015346
INCLINATION    = 42.9983
RA_OF_ASC_NODE = 142.8344
ARG_OF_PERICENTER = 286.6459
MEAN_ANOMALY   = 280.0288

EPHEMERIS_TYPE = 0
CLASSIFICATION_TYPE = U
NORAD_CAT_ID   = 67351
ELEMENT_SET_NO = 999
REV_AT_EPOCH   = 298
BSTAR          = -.84284726E-2
MEAN_MOTION_DOT = -.1607007E-1
MEAN_MOTION_DDOT = 0

CCSDS_OMM_VERS = 2.0
CREATION_DATE  = 
ORIGINATOR     = 

OBJECT_NAME    = STARLINK-36479
OBJECT_ID      = 2026-003U
CENTER_NAME    = EARTH
REF_FRAME      = TEME
TIME_SYSTEM    = UTC
MEAN_ELEMENT_THEORY = SGP/SGP4

EPOCH          = 2026-01-20T22:00:01.999584
MEAN_MOTION    = 15.82762950
ECCENTRICITY   = .00014931
INCLINATION    = 42.9983
RA_OF_ASC_NODE = 142.8291
ARG_OF_PERICENTER = 284.3304
MEAN_ANOMALY   = 284.4438

EPHEMERIS_TYPE = 0
CLASSIFICATION_TYPE = U
NORAD_CAT_ID   = 67352
ELEMENT_SET_NO = 999
REV_AT_EPOCH   = 299
BSTAR          = -.84663964E-2
MEAN_MOTION_DOT = -.1613314E-1
MEAN_MOTION_DDOT = 0

CCSDS_OMM_VERS = 2.0
CREATION_DATE  = 
ORIGINATOR     = 

OBJECT_NAME    = STARLINK-36474
OBJECT_ID      = 2026-003V
CENTER_NAME    = EARTH
REF_FRAME      = TEME
TIME_SYSTEM    = UTC
MEAN_ELEMENT_THEORY = SGP/SGP4

EPOCH          = 2026-01-20T22:00:01.999584
MEAN_MOTION    = 15.82745833
ECCENTRICITY   = .00013051
INCLINATION    = 42.9981
RA_OF_ASC_NODE = 142.8234
ARG_OF_PERICENTER = 278.9873
MEAN_ANOMALY   = 292.1524

EPHEMERIS_TYPE = 0
CLASSIFICATION_TYPE = U
NORAD_CAT_ID   = 67353
ELEMENT_SET_NO = 999
REV_AT_EPOCH   = 299
BSTAR          = -.85723727E-2
MEAN_MOTION_DOT = -.1629541E-1
MEAN_MOTION_DDOT = 0

